NORAD_CAT_ID,OBJECT_NAME,OBJECT_TYPE,EPOCH,MEAN_MOTION,ECCENTRICITY,INCLINATION,RA_OF_ASC_NODE,ARG_OF_PERICENTER,MEAN_ANOMALY,BSTAR,MEAN_MOTION_DOT,MEAN_MOTION_DDOT,TLE_LINE0,TLE_LINE1,TLE_LINE2,SEMIMAJOR_AXIS,PERIOD,APOGEE,PERIGEE,DECAYED
55425.0,STARLINK-5615,PAYLOAD,2023-04-20 14:00:01,15.66443654,0.000342,70.0009,227.8903,273.5875,179.7922,-0.0093756,-0.00893647,0.0,0 STARLINK-5615,1 55425U 23014AL  23110.58334491 -.00893647  00000-0 -93756-2 0  9996,2 55425  70.0009 227.8903 0003420 273.5875 179.7922 15.66443654  1301,6747.227,91.928,371.4,366.784,0.0
55425.0,STARLINK-5615,PAYLOAD,2023-04-20 16:00:00,15.6627195,0.0003313,70.0009,227.6572,273.4126,289.7365,-0.0091727,-0.00857826,0.0,0 STARLINK-5615,1 55425U 23014AL  23110.66667824 -.00857826  00000-0 -91727-2 0  9999,2 55425  70.0009 227.6572 0003313 273.4126 289.7365 15.66271950 12594,6747.72,91.938,371.821,367.35,0.0
55425.0,STARLINK-5615,PAYLOAD,2023-04-20 22:00:00,15.65838617,0.0003267,70.0008,226.9584,273.0271,259.1209,-0.010504,-0.00969326,0.0,0 STARLINK-5615,1 55425U 23014AL  23110.91667824 -.00969326  00000-0 -10504-1 0  9999,2 55425  70.0008 226.9584 0003267 273.0271 259.1209 15.65838617  1306,6748.965,91.964,373.035,368.625,0.0
55425.0,STARLINK-5615,PAYLOAD,2023-04-21 14:00:01,15.64489153,0.0003682,70.0012,225.0977,270.3857,57.0072,-0.010225,-0.00900566,0.0,0 STARLINK-5615,1 55425U 23014AL  23111.58334491 -.00900566  00000-0 -10225-1 0  9995,2 55425  70.0012 225.0977 0003682 270.3857  57.0072 15.64489153  1307,6752.845,92.043,377.197,372.224,0.0
55425.0,STARLINK-5615,PAYLOAD,2023-04-21 22:00:00,15.6387535,0.0003723,70.0007,224.1684,273.2893,130.5253,-0.011171,-0.0095479,0.0,0 STARLINK-5615,1 55425U 23014AL  23111.91667824 -.00954790  00000-0 -11171-1 0  9990,2 55425  70.0007 224.1684 0003723 273.2893 130.5253 15.63875350 12794,6754.612,92.079,378.992,373.962,0.0
55425.0,STARLINK-5615,PAYLOAD,2023-04-22 14:00:01,15.62515538,0.0003559,70.0007,222.3127,272.7424,281.6248,-0.010621,-0.00868236,0.0,0 STARLINK-5615,1 55425U 23014AL  23112.58334491 -.00868236  00000-0 -10621-1 0  9993,2 55425  70.0007 222.3127 0003559 272.7424 281.6248 15.62515538 12898,6758.531,92.159,382.801,377.99,0.0
55425.0,STARLINK-5615,PAYLOAD,2023-04-22 22:00:01,15.61926814,0.0003506,70.0005,221.3863,272.6782,355.8249,-0.012316,-0.00973092,0.0,0 STARLINK-5615,1 55425U 23014AL  23112.91668981 -.00973092  00000-0 -12316-1 0  9994,2 55425  70.0005 221.3863 0003506 272.6782 355.8249 15.61926814  1301,6760.229,92.194,384.464,379.724,0.0
55425.0,STARLINK-5615,PAYLOAD,2023-04-23 06:00:00,15.61252949,0.0003577,70.0008,220.4612,268.7497,73.0005,-0.011835,-0.00916424,0.0,0 STARLINK-5615,1 55425U 23014AL  23113.25001157 -.00916424  00000-0 -11835-1 0  9999,2 55425  70.0008 220.4612 0003577 268.7497  73.0005 15.61252949 13003,6762.174,92.234,386.458,381.62,0.0
55425.0,STARLINK-5615,PAYLOAD,2023-04-23 14:00:01,15.60557684,0.0003523,70.0007,219.5366,275.0765,139.2214,-0.011409,-0.00864705,0.0,0 STARLINK-5615,1 55425U 23014AL  23113.58334491 -.00864705  00000-0 -11409-1 0  9996,2 55425  70.0007 219.5366 0003523 275.0765 139.2214 15.60557684  1307,6764.182,92.275,388.43,383.664,0.0
55425.0,STARLINK-5615,PAYLOAD,2023-04-23 22:00:00,15.59961678,0.0003341,70.0001,218.6127,273.8147,212.2104,-0.013077,-0.00958987,0.0,0 STARLINK-5615,1 55425U 23014AL  23113.91667824 -.00958987  00000-0 -13077-1 0  9991,2 55425  70.0001 218.6127 0003341 273.8147 212.2104 15.59961678  1304,6765.905,92.31,390.03,385.509,0.0
55425.0,STARLINK-5615,PAYLOAD,2023-04-24 06:00:00,15.59298479,0.0003267,70.0002,217.6899,266.456,290.5296,-0.01284,-0.00921652,0.0,0 STARLINK-5615,1 55425U 23014AL  23114.25001157 -.00921652  00000-0 -12840-1 0  9996,2 55425  70.0002 217.6899 0003267 266.4560 290.5296 15.59298479 13164,6767.823,92.349,391.899,387.477,0.0
55425.0,STARLINK-5615,PAYLOAD,2023-04-24 14:00:01,15.58600378,0.0003341,70.0003,216.7678,274.0025,353.1844,-0.012225,-0.0086014,0.0,0 STARLINK-5615,1 55425U 23014AL  23114.58334491 -.00860140  00000-0 -12225-1 0  9993,2 55425  70.0003 216.7678 0003341 274.0025 353.1844 15.58600378  1306,6769.844,92.391,393.971,389.447,0.0
55425.0,STARLINK-5615,PAYLOAD,2023-04-25 06:00:00,15.57351905,0.0003301,70.0001,214.9269,268.3274,136.8524,-0.01407,-0.00936707,0.0,0 STARLINK-5615,1 55425U 23014AL  23115.25001157 -.00936707  00000-0 -14070-1 0  9991,2 55425  70.0001 214.9269 0003301 268.3274 136.8524 15.57351905 13311,6773.462,92.465,397.562,393.091,0.0
55425.0,STARLINK-5615,PAYLOAD,2023-04-25 14:00:01,15.56649373,0.0003208,69.9997,214.0077,276.1087,196.9907,-0.013306,-0.00869075,0.0,0 STARLINK-5615,1 55425U 23014AL  23115.58335648 -.00869075  00000-0 -13306-1 0  9996,2 55425  69.9997 214.0077 0003208 276.1087 196.9907 15.56649373  1301,6775.499,92.506,399.538,395.191,0.0
55425.0,STARLINK-5615,PAYLOAD,2023-04-26 14:00:01,15.54696776,0.0003362,69.9997,211.2553,274.5323,37.3104,-0.014408,-0.00874872,0.0,0 STARLINK-5615,1 55425U 23014AL  23116.58334491 -.00874872  00000-0 -14408-1 0  9997,2 55425  69.9997 211.2553 0003362 274.5323  37.3104 15.54696776  1309,6781.171,92.623,405.316,400.756,0.0
55425.0,STARLINK-5615,PAYLOAD,2023-04-26 22:00:00,15.54068895,0.0003371,69.9995,210.3395,274.2277,102.3138,-0.015657,-0.00924137,0.0,0 STARLINK-5615,1 55425U 23014AL  23116.91667824 -.00924137  00000-0 -15657-1 0  9990,2 55425  69.9995 210.3395 0003371 274.2277 102.3138 15.54068895  1301,6782.998,92.66,407.149,402.576,0.0
55425.0,STARLINK-5615,PAYLOAD,2023-04-27 06:00:02,15.53436155,0.0003352,69.9997,209.4248,271.3211,169.1955,-0.016214,-0.00934123,0.0,0 STARLINK-5615,1 55425U 23014AL  23117.25002315 -.00934123  00000-0 -16214-1 0  9992,2 55425  69.9997 209.4248 0003352 271.3211 169.1955 15.53436155 13627,6784.839,92.698,408.979,404.43,0.0
55425.0,STARLINK-5615,PAYLOAD,2023-04-27 14:00:01,15.52738837,0.0003245,69.9995,208.5112,276.3634,227.3129,-0.015466,-0.0087434,0.0,0 STARLINK-5615,1 55425U 23014AL  23117.58335648 -.00874340  00000-0 -15466-1 0  9998,2 55425  69.9995 208.5112 0003245 276.3634 227.3129 15.52738837  1303,6786.871,92.739,410.938,406.533,0.0
55425.0,STARLINK-5615,PAYLOAD,2023-04-28 06:00:02,15.51315738,0.0003399,69.9998,206.6863,267.5717,0.0395,-0.0023452,-0.00136029,0.0,0 STARLINK-5615,1 55425U 23014AL  23118.25002315 -.00136029  00000-0 -23452-2 0  9995,2 55425  69.9998 206.6863 0003399 267.5717   0.0395 15.51315738 13788,6791.021,92.824,415.194,410.577,0.0
55425.0,STARLINK-5615,PAYLOAD,2023-04-28 14:00:01,15.51197452,0.0003518,69.9996,205.775,273.9496,54.5649,0.00071173,0.00041824,0.0,0 STARLINK-5615,1 55425U 23014AL  23118.58334491  .00041824  00000-0  71173-3 0  9994,2 55425  69.9996 205.7750 0003518 273.9496  54.5649 15.51197452 13832,6791.366,92.832,415.62,410.842,0.0
55425.0,STARLINK-5615,PAYLOAD,2023-04-29 06:00:00,15.51245708,0.000362,69.9999,203.9522,267.8746,182.4403,-0.00034018,-0.00020112,0.0,0 STARLINK-5615,1 55425U 23014AL  23119.25001157 -.00020112  00000-0 -34018-3 0  9995,2 55425  69.9999 203.9522 0003620 267.8746 182.4403 15.51245708 13934,6791.225,92.829,415.548,410.631,0.0
55425.0,STARLINK-5615,PAYLOAD,2023-04-29 14:00:01,15.51199863,0.0003628,70.0,203.0408,274.2527,237.0622,0.00075964,0.00044671,0.0,0 STARLINK-5615,1 55425U 23014AL  23119.58335648  .00044671  00000-0  75964-3 0  9995,2 55425  70.0000 203.0408 0003628 274.2527 237.0622 15.51199863  1309,6791.359,92.831,415.688,410.76,0.0
55425.0,STARLINK-5615,PAYLOAD,2023-04-30 06:00:00,15.51252182,0.0003635,70.0001,201.2182,267.7377,5.32,-0.00046059,-0.00027155,0.0,0 STARLINK-5615,1 55425U 23014AL  23120.25001157 -.00027155  00000-0 -46059-3 0  9999,2 55425  70.0001 201.2182 0003635 267.7377   5.3200 15.51252182 14099,6791.206,92.828,415.54,410.602,0.0
55425.0,STARLINK-5615,PAYLOAD,2023-04-30 14:00:01,15.51190774,0.0003581,70.0,200.3069,275.7787,58.2185,0.00085893,0.00050552,0.0,0 STARLINK-5615,1 55425U 23014AL  23120.58334491  .00050552  00000-0  85893-3 0  9999,2 55425  70.0000 200.3069 0003581 275.7787  58.2185 15.51190774  1303,6791.385,92.832,415.682,410.818,0.0
55425.0,STARLINK-5615,PAYLOAD,2023-05-01 00:00:00,15.51193425,0.0003581,70.0001,199.1677,271.575,228.5574,0.00092937,0.00054746,0.0,0 STARLINK-5615,1 55425U 23014AL  23121.00001157  .00054746  00000-0  92937-3 0  9993,2 55425  70.0001 199.1677 0003581 271.5750 228.5574 15.51193425 14201,6791.377,92.832,415.674,410.811,0.0
55425.0,STARLINK-5615,PAYLOAD,2023-05-01 08:41:02,15.51221802,0.0003513,69.998,198.1791,272.8362,87.2422,7.6825e-07,-1.2e-06,0.0,0 STARLINK-5615,1 55425U 23014AL  23121.36183565 -.00000120  00000-0  76825-6 0  9995,2 55425  69.9980 198.1791 0003513 272.8362  87.2422 15.51221802 14267,6791.295,92.83,415.545,410.774,0.0
55425.0,STARLINK-5615,PAYLOAD,2023-05-01 13:19:36,15.51229125,0.0003305,69.9982,197.6502,275.101,84.9798,1.7303e-05,8.52e-06,0.0,0 STARLINK-5615,1 55425U 23014AL  23121.55528252  .00000852  00000-0  17303-4 0  9997,2 55425  69.9982 197.6502 0003305 275.1010  84.9798 15.51229125 15232,6791.273,92.83,415.383,410.894,0.0
55425.0,STARLINK-5615,PAYLOAD,2023-05-01 14:52:27,15.51254073,0.0002653,69.9987,197.4734,272.1476,87.9407,-6.6058e-05,-4.047e-05,0.0,0 STARLINK-5615,1 55425U 23014AL  23121.61976085 -.00004047  00000-0 -66058-4 0  9998,2 55425  69.9987 197.4734 0002653 272.1476  87.9407 15.51254073 14307,6791.2,92.828,414.867,411.264,0.0
55425.0,STARLINK-5615,PAYLOAD,2023-05-02 04:48:10,15.51229536,0.0003159,69.9984,195.8873,269.6397,90.4427,1.2537e-05,5.72e-06,0.0,0 STARLINK-5615,1 55425U 23014AL  23122.20012563  .00000572  00000-0  12537-4 0  9996,2 55425  69.9984 195.8873 0003159 269.6397  90.4427 15.51229536 14391,6791.272,92.83,415.282,410.992,0.0
55425.0,STARLINK-5615,PAYLOAD,2023-05-02 12:32:51,15.50943611,0.0003558,69.9981,195.007,266.1711,93.9068,-0.00061198,-0.00035597,0.0,0 STARLINK-5615,1 55425U 23014AL  23122.52281419 -.00035597  00000-0 -61198-3 0  9992,2 55425  69.9981 195.0070 0003558 266.1711  93.9068 15.50943611 14445,6792.107,92.847,416.388,411.555,0.0
